{
  "type": "FeatureCollection",
  "features": [
    {
      "type": "Feature",
      "properties": {
        "norad_id": 37918,
        "name": "FENGYUN 1C DEB",
        "group": "fengyun-1c-debris",
        "lat": 77.63864399197111,
        "lon": 174.9739934435876,
        "alt_km": 803.7610463665997,
        "timestamp": "2025-12-24T11:33:00.307070+00:00",
        "meta_object_name": "FENGYUN 1C DEB",
        "meta_object_id": "1999-025ENT",
        "meta_epoch": "2025-12-20T20:02:06.921312",
        "meta_mean_motion": 14.34412668,
        "meta_eccentricity": 0.00547908,
        "meta_inclination": 99.0289,
        "meta_ra_of_asc_node": 304.6539,
        "meta_arg_of_pericenter": 259.6508,
        "meta_mean_anomaly": 99.8496,
        "meta_ephemeris_type": 0,
        "meta_classification_type": "U",
        "meta_norad_cat_id": 37918,
        "meta_element_set_no": 999,
        "meta_rev_at_epoch": 3658,
        "meta_bstar": 0.00044138632,
        "meta_mean_motion_dot": 1.215e-05,
        "meta_mean_motion_ddot": 0,
        "tle_line1": "1 37918U 99025ENT 25354.83480233  .00001215  00000+0  44139-3 0  9995",
        "tle_line2": "2 37918  99.0289 304.6539 0054790 259.6508  99.8496 14.34412668 36583"
      },
      "geometry": {
        "type": "Point",
        "coordinates": [
          174.9739934435876,
          77.63864399197111
        ]
      }
    },
    {
      "type": "Feature",
      "properties": {
        "norad_id": 37919,
        "name": "FENGYUN 1C DEB",
        "group": "fengyun-1c-debris",
        "lat": -49.06166375380577,
        "lon": -52.56432771271764,
        "alt_km": 779.3508651791235,
        "timestamp": "2025-12-24T11:33:00.307080+00:00",
        "meta_object_name": "FENGYUN 1C DEB",
        "meta_object_id": "1999-025ENU",
        "meta_epoch": "2025-12-21T13:05:37.870080",
        "meta_mean_motion": 14.26784577,
        "meta_eccentricity": 0.0049416,
        "meta_inclination": 99.0587,
        "meta_ra_of_asc_node": 293.7998,
        "meta_arg_of_pericenter": 351.2429,
        "meta_mean_anomaly": 8.7883,
        "meta_ephemeris_type": 0,
        "meta_classification_type": "U",
        "meta_norad_cat_id": 37919,
        "meta_element_set_no": 999,
        "meta_rev_at_epoch": 65034,
        "meta_bstar": 0.0004279,
        "meta_mean_motion_dot": 1.003e-05,
        "meta_mean_motion_ddot": 0,
        "tle_line1": "1 37919U 99025ENU 25355.54557720  .00001003  00000+0  42790-3 0  9997",
        "tle_line2": "2 37919  99.0587 293.7998 0049416 351.2429   8.7883 14.26784577650349"
      },
      "geometry": {
        "type": "Point",
        "coordinates": [
          -52.56432771271764,
          -49.06166375380577
        ]
      }
    },
    {
      "type": "Feature",
      "properties": {
        "norad_id": 37921,
        "name": "FENGYUN 1C DEB",
        "group": "fengyun-1c-debris",
        "lat": -11.750806088691286,
        "lon": 41.19565359979673,
        "alt_km": 902.2027017888513,
        "timestamp": "2025-12-24T11:33:00.307090+00:00",
        "meta_object_name": "FENGYUN 1C DEB",
        "meta_object_id": "1999-025ENW",
        "meta_epoch": "2025-12-21T19:55:24.950496",
        "meta_mean_motion": 13.95159889,
        "meta_eccentricity": 0.00843197,
        "meta_inclination": 99.021,
        "meta_ra_of_asc_node": 36.7092,
        "meta_arg_of_pericenter": 74.058,
        "meta_mean_anomaly": 286.9853,
        "meta_ephemeris_type": 0,
        "meta_classification_type": "U",
        "meta_norad_cat_id": 37921,
        "meta_element_set_no": 999,
        "meta_rev_at_epoch": 63274,
        "meta_bstar": 0.00031229262,
        "meta_mean_motion_dot": 3.91e-06,
        "meta_mean_motion_ddot": 0,
        "tle_line1": "1 37921U 99025ENW 25355.83014989  .00000391  00000+0  31229-3 0  9991",
        "tle_line2": "2 37921  99.0210  36.7092 0084319  74.0580 286.9853 13.95159889632742"
      },
      "geometry": {
        "type": "Point",
        "coordinates": [
          41.19565359979673,
          -11.750806088691286
        ]
      }
    },
    {
      "type": "Feature",
      "properties": {
        "norad_id": 37925,
        "name": "FENGYUN 1C DEB",
        "group": "fengyun-1c-debris",
        "lat": 56.91819847295198,
        "lon": 63.398780856152925,
        "alt_km": 660.9970583220829,
        "timestamp": "2025-12-24T11:33:00.307100+00:00",
        "meta_object_name": "FENGYUN 1C DEB",
        "meta_object_id": "1999-025EPA",
        "meta_epoch": "2025-12-22T21:41:38.860800",
        "meta_mean_motion": 14.80526884,
        "meta_eccentricity": 0.0055816,
        "meta_inclination": 99.0855,
        "meta_ra_of_asc_node": 227.3947,
        "meta_arg_of_pericenter": 311.3833,
        "meta_mean_anomaly": 48.2583,
        "meta_ephemeris_type": 0,
        "meta_classification_type": "U",
        "meta_norad_cat_id": 37925,
        "meta_element_set_no": 999,
        "meta_rev_at_epoch": 65833,
        "meta_bstar": 0.0018808,
        "meta_mean_motion_dot": 0.00014755,
        "meta_mean_motion_ddot": 0,
        "tle_line1": "1 37925U 99025EPA 25356.90392200  .00014755  00000+0  18808-2 0  9995",
        "tle_line2": "2 37925  99.0855 227.3947 0055816 311.3833  48.2583 14.80526884658336"
      },
      "geometry": {
        "type": "Point",
        "coordinates": [
          63.398780856152925,
          56.91819847295198
        ]
      }
    },
    {
      "type": "Feature",
      "properties": {
        "norad_id": 37926,
        "name": "FENGYUN 1C DEB",
        "group": "fengyun-1c-debris",
        "lat": 61.65110281828189,
        "lon": -101.90230733371523,
        "alt_km": 791.8377959969439,
        "timestamp": "2025-12-24T11:33:00.307110+00:00",
        "meta_object_name": "FENGYUN 1C DEB",
        "meta_object_id": "1999-025EPB",
        "meta_epoch": "2025-12-23T22:20:37.948128",
        "meta_mean_motion": 14.24292441,
        "meta_eccentricity": 0.00546,
        "meta_inclination": 98.7226,
        "meta_ra_of_asc_node": 61.0201,
        "meta_arg_of_pericenter": 189.5997,
        "meta_mean_anomaly": 348.1864,
        "meta_ephemeris_type": 0,
        "meta_classification_type": "U",
        "meta_norad_cat_id": 37926,
        "meta_element_set_no": 999,
        "meta_rev_at_epoch": 74429,
        "meta_bstar": 0.0015515,
        "meta_mean_motion_dot": 3.595e-05,
        "meta_mean_motion_ddot": 0,
        "tle_line1": "1 37926U 99025EPB 25357.93099477  .00003595  00000+0  15515-2 0  9992",
        "tle_line2": "2 37926  98.7226  61.0201 0054600 189.5997 348.1864 14.24292441744299"
      },
      "geometry": {
        "type": "Point",
        "coordinates": [
          -101.90230733371523,
          61.65110281828189
        ]
      }
    },
    {
      "type": "Feature",
      "properties": {
        "norad_id": 37927,
        "name": "FENGYUN 1C DEB",
        "group": "fengyun-1c-debris",
        "lat": -58.729837514715626,
        "lon": 157.92009041611738,
        "alt_km": 658.1803888914792,
        "timestamp": "2025-12-24T11:33:00.307120+00:00",
        "meta_object_name": "FENGYUN 1C DEB",
        "meta_object_id": "1999-025EPC",
        "meta_epoch": "2025-12-20T03:25:18.230304",
        "meta_mean_motion": 14.72067181,
        "meta_eccentricity": 0.00083592,
        "meta_inclination": 98.8071,
        "meta_ra_of_asc_node": 138.4338,
        "meta_arg_of_pericenter": 253.9424,
        "meta_mean_anomaly": 106.086,
        "meta_ephemeris_type": 0,
        "meta_classification_type": "U",
        "meta_norad_cat_id": 37927,
        "meta_element_set_no": 999,
        "meta_rev_at_epoch": 65225,
        "meta_bstar": 0.0024443804,
        "meta_mean_motion_dot": 0.00015349,
        "meta_mean_motion_ddot": 0,
        "tle_line1": "1 37927U 99025EPC 25354.14257211  .00015349  00000+0  24444-2 0  9996",
        "tle_line2": "2 37927  98.8071 138.4338 0008359 253.9424 106.0860 14.72067181652255"
      },
      "geometry": {
        "type": "Point",
        "coordinates": [
          157.92009041611738,
          -58.729837514715626
        ]
      }
    },
    {
      "type": "Feature",
      "properties": {
        "norad_id": 37928,
        "name": "FENGYUN 1C DEB",
        "group": "fengyun-1c-debris",
        "lat": -26.215188367532697,
        "lon": 49.06620821441274,
        "alt_km": 819.7956927086298,
        "timestamp": "2025-12-24T11:33:00.307130+00:00",
        "meta_object_name": "FENGYUN 1C DEB",
        "meta_object_id": "1999-025EPD",
        "meta_epoch": "2025-12-21T09:04:11.551008",
        "meta_mean_motion": 14.37132631,
        "meta_eccentricity": 0.0073076,
        "meta_inclination": 98.9148,
        "meta_ra_of_asc_node": 230.2847,
        "meta_arg_of_pericenter": 7.9876,
        "meta_mean_anomaly": 352.2454,
        "meta_ephemeris_type": 0,
        "meta_classification_type": "U",
        "meta_norad_cat_id": 37928,
        "meta_element_set_no": 999,
        "meta_rev_at_epoch": 81316,
        "meta_bstar": 0.00050775945,
        "meta_mean_motion_dot": 1.508e-05,
        "meta_mean_motion_ddot": 0,
        "tle_line1": "1 37928U 99025EPD 25355.37791147  .00001508  00000+0  50776-3 0  9994",
        "tle_line2": "2 37928  98.9148 230.2847 0073076   7.9876 352.2454 14.37132631813161"
      },
      "geometry": {
        "type": "Point",
        "coordinates": [
          49.06620821441274,
          -26.215188367532697
        ]
      }
    }
  ]
}